[{"OBJECT_NAME":"STARLINK-34083","OBJECT_ID":"2025-095U","EPOCH":"2026-01-03T11:54:25.748640","MEAN_MOTION":15.27612053,"ECCENTRICITY":0.0001074,"INCLINATION":43.0022,"RA_OF_ASC_NODE":184.7152,"ARG_OF_PERICENTER":270.492,"MEAN_ANOMALY":89.5809,"EPHEMERIS_TYPE":0,"CLASSIFICATION_TYPE":"U","NORAD_CAT_ID":63908,"ELEMENT_SET_NO":999,"REV_AT_EPOCH":3780,"BSTAR":0.0013943,"MEAN_MOTION_DOT":0.00038342,"MEAN_MOTION_DDOT":0},{"OBJECT_NAME":"STARLINK-34066","OBJECT_ID":"2025-095V","EPOCH":"2026-01-03T11:34:04.474272","MEAN_MOTION":15.27614413,"ECCENTRICITY":6.24e-5,"INCLINATION":42.998,"RA_OF_ASC_NODE":184.6075,"ARG_OF_PERICENTER":261.3047,"MEAN_ANOMALY":98.7734,"EPHEMERIS_TYPE":0,"CLASSIFICATION_TYPE":"U","NORAD_CAT_ID":63909,"ELEMENT_SET_NO":999,"REV_AT_EPOCH":3780,"BSTAR":0.0014768,"MEAN_MOTION_DOT":0.00040643,"MEAN_MOTION_DDOT":0},{"OBJECT_NAME":"STARLINK-34071","OBJECT_ID":"2025-095W","EPOCH":"2026-01-03T11:43:19.672896","MEAN_MOTION":15.27625391,"ECCENTRICITY":2.86e-5,"INCLINATION":43.001,"RA_OF_ASC_NODE":184.6603,"ARG_OF_PERICENTER":309.1645,"MEAN_ANOMALY":50.9181,"EPHEMERIS_TYPE":0,"CLASSIFICATION_TYPE":"U","NORAD_CAT_ID":63910,"ELEMENT_SET_NO":999,"REV_AT_EPOCH":3780,"BSTAR":0.0018308,"MEAN_MOTION_DOT":0.00050533,"MEAN_MOTION_DDOT":0},{"OBJECT_NAME":"STARLINK-34038","OBJECT_ID":"2025-095X","EPOCH":"2026-01-03T11:22:58.526400","MEAN_MOTION":15.27600187,"ECCENTRICITY":6.52e-5,"INCLINATION":42.9973,"RA_OF_ASC_NODE":184.5487,"ARG_OF_PERICENTER":26.4357,"MEAN_ANOMALY":333.6527,"EPHEMERIS_TYPE":0,"CLASSIFICATION_TYPE":"U","NORAD_CAT_ID":63911,"ELEMENT_SET_NO":999,"REV_AT_EPOCH":3780,"BSTAR":0.0020123,"MEAN_MOTION_DOT":0.00055565,"MEAN_MOTION_DDOT":0},{"OBJECT_NAME":"STARLINK-34031","OBJECT_ID":"2025-095Y","EPOCH":"2026-01-03T11:28:31.319328","MEAN_MOTION":15.27621415,"ECCENTRICITY":6.91e-5,"INCLINATION":42.997,"RA_OF_ASC_NODE":184.5773,"ARG_OF_PERICENTER":288.2981,"MEAN_ANOMALY":71.7795,"EPHEMERIS_TYPE":0,"CLASSIFICATION_TYPE":"U","NORAD_CAT_ID":63912,"ELEMENT_SET_NO":999,"REV_AT_EPOCH":3780,"BSTAR":0.001786,"MEAN_MOTION_DOT":0.00049276,"MEAN_MOTION_DDOT":0},{"OBJECT_NAME":"STARLINK-34070","OBJECT_ID":"2025-095Z","EPOCH":"2026-01-03T11:17:25.049184","MEAN_MOTION":15.27609682,"ECCENTRICITY":0.0001591,"INCLINATION":42.9965,"RA_OF_ASC_NODE":184.5122,"ARG_OF_PERICENTER":286.9053,"MEAN_ANOMALY":73.1624,"EPHEMERIS_TYPE":0,"CLASSIFICATION_TYPE":"U","NORAD_CAT_ID":63913,"ELEMENT_SET_NO":999,"REV_AT_EPOCH":3780,"BSTAR":0.0016379,"MEAN_MOTION_DOT":0.00045126,"MEAN_MOTION_DDOT":0},{"OBJECT_NAME":"STARLINK-34068","OBJECT_ID":"2025-095AA","EPOCH":"2026-01-03T04:45:59.237856","MEAN_MOTION":15.27596504,"ECCENTRICITY":0.0001003,"INCLINATION":43.0013,"RA_OF_ASC_NODE":185.9085,"ARG_OF_PERICENTER":272.6746,"MEAN_ANOMALY":87.399,"EPHEMERIS_TYPE":0,"CLASSIFICATION_TYPE":"U","NORAD_CAT_ID":63914,"ELEMENT_SET_NO":999,"REV_AT_EPOCH":3776,"BSTAR":0.00086155,"MEAN_MOTION_DOT":0.00023533,"MEAN_MOTION_DDOT":0},{"OBJECT_NAME":"STARLINK-34076","OBJECT_ID":"2025-095AB","EPOCH":"2026-01-03T04:55:13.919808","MEAN_MOTION":15.27623868,"ECCENTRICITY":0.0002013,"INCLINATION":42.9983,"RA_OF_ASC_NODE":185.9608,"ARG_OF_PERICENTER":276.8822,"MEAN_ANOMALY":83.1801,"EPHEMERIS_TYPE":0,"CLASSIFICATION_TYPE":"U","NORAD_CAT_ID":63915,"ELEMENT_SET_NO":999,"REV_AT_EPOCH":3776,"BSTAR":0.0018429,"MEAN_MOTION_DOT":0.00050871,"MEAN_MOTION_DDOT":0},{"OBJECT_NAME":"STARLINK-33910","OBJECT_ID":"2025-095AC","EPOCH":"2026-01-03T12:14:34.133856","MEAN_MOTION":15.2760998,"ECCENTRICITY":0.0001369,"INCLINATION":42.9949,"RA_OF_ASC_NODE":183.9429,"ARG_OF_PERICENTER":157.1454,"MEAN_ANOMALY":202.9459,"EPHEMERIS_TYPE":0,"CLASSIFICATION_TYPE":"U","NORAD_CAT_ID":63916,"ELEMENT_SET_NO":999,"REV_AT_EPOCH":3781,"BSTAR":0.0014757,"MEAN_MOTION_DOT":0.00040606,"MEAN_MOTION_DDOT":0},{"OBJECT_NAME":"STARLINK-34075","OBJECT_ID":"2025-095AD","EPOCH":"2026-01-03T12:31:12.571392","MEAN_MOTION":15.27593002,"ECCENTRICITY":9.93e-5,"INCLINATION":42.9982,"RA_OF_ASC_NODE":184.0351,"ARG_OF_PERICENTER":283.0964,"MEAN_ANOMALY":76.9777,"EPHEMERIS_TYPE":0,"CLASSIFICATION_TYPE":"U","NORAD_CAT_ID":63917,"ELEMENT_SET_NO":999,"REV_AT_EPOCH":3781,"BSTAR":0.00087094,"MEAN_MOTION_DOT":0.00023791,"MEAN_MOTION_DDOT":0},{"OBJECT_NAME":"STARLINK-34012","OBJECT_ID":"2025-098A","EPOCH":"2026-01-03T11:50:29.961312","MEAN_MOTION":14.98348875,"ECCENTRICITY":0.0004213,"INCLINATION":70.0022,"RA_OF_ASC_NODE":78.9655,"ARG_OF_PERICENTER":265.9651,"MEAN_ANOMALY":94.1026,"EPHEMERIS_TYPE":0,"CLASSIFICATION_TYPE":"U","NORAD_CAT_ID":63926,"ELEMENT_SET_NO":999,"REV_AT_EPOCH":3682,"BSTAR":-0.0019711,"MEAN_MOTION_DOT":-0.00023546,"MEAN_MOTION_DDOT":0},{"OBJECT_NAME":"STARLINK-33956","OBJECT_ID":"2025-098B","EPOCH":"2026-01-03T04:19:49.824192","MEAN_MOTION":14.98471098,"ECCENTRICITY":0.00023358,"INCLINATION":70.0075,"RA_OF_ASC_NODE":79.4734,"ARG_OF_PERICENTER":216.6308,"MEAN_ANOMALY":143.4692,"EPHEMERIS_TYPE":0,"CLASSIFICATION_TYPE":"U","NORAD_CAT_ID":63927,"ELEMENT_SET_NO":999,"REV_AT_EPOCH":3676,"BSTAR":-0.0076353923,"MEAN_MOTION_DOT":-0.00090358,"MEAN_MOTION_DDOT":0},{"OBJECT_NAME":"STARLINK-33997","OBJECT_ID":"2025-098C","EPOCH":"2026-01-03T12:08:33.370656","MEAN_MOTION":14.98336574,"ECCENTRICITY":0.0002766,"INCLINATION":70.0031,"RA_OF_ASC_NODE":79.0024,"ARG_OF_PERICENTER":258.876,"MEAN_ANOMALY":101.2088,"EPHEMERIS_TYPE":0,"CLASSIFICATION_TYPE":"U","NORAD_CAT_ID":63928,"ELEMENT_SET_NO":999,"REV_AT_EPOCH":3680,"BSTAR":0.0011801,"MEAN_MOTION_DOT":0.00014018,"MEAN_MOTION_DDOT":0},{"OBJECT_NAME":"STARLINK-33989","OBJECT_ID":"2025-098D","EPOCH":"2026-01-03T11:32:43.801728","MEAN_MOTION":14.98333924,"ECCENTRICITY":0.0002876,"INCLINATION":70.003,"RA_OF_ASC_NODE":78.9238,"ARG_OF_PERICENTER":268.2773,"MEAN_ANOMALY":91.8056,"EPHEMERIS_TYPE":0,"CLASSIFICATION_TYPE":"U","NORAD_CAT_ID":63929,"ELEMENT_SET_NO":999,"REV_AT_EPOCH":3680,"BSTAR":0.00087414,"MEAN_MOTION_DOT":0.00010354,"MEAN_MOTION_DDOT":0},{"OBJECT_NAME":"STARLINK-33980","OBJECT_ID":"2025-098E","EPOCH":"2026-01-03T12:02:30.663456","MEAN_MOTION":14.98387407,"ECCENTRICITY":0.0003268,"INCLINATION":70.0027,"RA_OF_ASC_NODE":78.9951,"ARG_OF_PERICENTER":255.8727,"MEAN_ANOMALY":104.2069,"EPHEMERIS_TYPE":0,"CLASSIFICATION_TYPE":"U","NORAD_CAT_ID":63930,"ELEMENT_SET_NO":999,"REV_AT_EPOCH":3680,"BSTAR":-0.0053536,"MEAN_MOTION_DOT":-0.00063492,"MEAN_MOTION_DDOT":0},{"OBJECT_NAME":"STARLINK-33994","OBJECT_ID":"2025-098F","EPOCH":"2026-01-03T11:26:43.054080","MEAN_MOTION":14.98336036,"ECCENTRICITY":0.0002942,"INCLINATION":70.0032,"RA_OF_ASC_NODE":78.9083,"ARG_OF_PERICENTER":271.6691,"MEAN_ANOMALY":88.4131,"EPHEMERIS_TYPE":0,"CLASSIFICATION_TYPE":"U","NORAD_CAT_ID":63931,"ELEMENT_SET_NO":999,"REV_AT_EPOCH":3680,"BSTAR":0.00076922,"MEAN_MOTION_DOT":9.099e-5,"MEAN_MOTION_DDOT":0}]
