STARLINK-34083          
1 63908U 25095U   26003.49613135  .00038342  00000+0  13943-2 0  9991
2 63908  43.0022 184.7152 0001074 270.4920  89.5809 15.27612053 37802
STARLINK-34066          
1 63909U 25095V   26003.48199623  .00040643  00000+0  14768-2 0  9995
2 63909  42.9980 184.6075 0000624 261.3047  98.7734 15.27614413 37807
STARLINK-34071          
1 63910U 25095W   26003.48842214  .00050533  00000+0  18308-2 0  9991
2 63910  43.0010 184.6603 0000286 309.1645  50.9181 15.27625391 37804
STARLINK-34038          
1 63911U 25095X   26003.47428850  .00055565  00000+0  20123-2 0  9995
2 63911  42.9973 184.5487 0000652  26.4357 333.6527 15.27600187 37807
STARLINK-34031          
1 63912U 25095Y   26003.47814027  .00049276  00000+0  17860-2 0  9997
2 63912  42.9970 184.5773 0000691 288.2981  71.7795 15.27621415 37801
STARLINK-34070          
1 63913U 25095Z   26003.47042881  .00045126  00000+0  16379-2 0  9993
2 63913  42.9965 184.5122 0001591 286.9053  73.1624 15.27609682 37808
STARLINK-34068          
1 63914U 25095AA  26003.19860229  .00023533  00000+0  86155-3 0  9995
2 63914  43.0013 185.9085 0001003 272.6746  87.3990 15.27596504 37763
STARLINK-34076          
1 63915U 25095AB  26003.20502222  .00050871  00000+0  18429-2 0  9997
2 63915  42.9983 185.9608 0002013 276.8822  83.1801 15.27623868 37761
STARLINK-33910          
1 63916U 25095AC  26003.51011729  .00040606  00000+0  14757-2 0  9994
2 63916  42.9949 183.9429 0001369 157.1454 202.9459 15.27609980 37813
STARLINK-34075          
1 63917U 25095AD  26003.52167328  .00023791  00000+0  87094-3 0  9994
2 63917  42.9982 184.0351 0000993 283.0964  76.9777 15.27593002 37813
STARLINK-34012          
1 63926U 25098A   26003.49340233 -.00023546  00000+0 -19711-2 0  9991
2 63926  70.0022  78.9655 0004213 265.9651  94.1026 14.98348875 36821
STARLINK-33956          
1 63927U 25098B   26003.18043778 -.00090358  00000+0 -76354-2 0  9993
2 63927  70.0075  79.4734 0002335 216.6308 143.4692 14.98471098 36763
STARLINK-33997          
1 63928U 25098C   26003.50594179  .00014018  00000+0  11801-2 0  9999
2 63928  70.0031  79.0024 0002766 258.8760 101.2088 14.98336574 36807
STARLINK-33989          
1 63929U 25098D   26003.48106252  .00010354  00000+0  87414-3 0  9991
2 63929  70.0030  78.9238 0002876 268.2773  91.8056 14.98333924 36808
STARLINK-33980          
1 63930U 25098E   26003.50174379 -.00063492  00000+0 -53536-2 0  9991
2 63930  70.0027  78.9951 0003268 255.8727 104.2069 14.98387407 36803
STARLINK-33994          
1 63931U 25098F   26003.47688720  .00009099  00000+0  76922-3 0  9994
2 63931  70.0032  78.9083 0002942 271.6691  88.4131 14.98336036 36805
